satname,norad_id,inclination_deg,eccentricity,mean_motion_rev_per_day,perigee_km,apogee_km,l1,l2
STARLINK-1327,45555,53.057,0.0002188,15.06390954,545.7240104334878,548.7545550948253,1 45555U 20025AA  25287.30867884  .00004141  00000+0  29679-3 0  9996,2 45555  53.0570  23.7497 0002188 107.5033 252.6196 15.06390954303308
STARLINK-1336,45557,53.0362,0.0003107,16.03384173,262.990581710832,267.1186609843371,1 45557U 20025AC  25287.28655769  .00546961  14923-3  85913-3 0  9999,2 45557  53.0362 325.1361 0003107  44.8036 315.3246 16.03384173304124
STARLINK-1356,45564,53.0551,0.0001391,15.06391982,546.272812659804,548.1994514651424,1 45564U 20025AK  25286.98060567 -.00000984  00000+0 -47210-4 0  9997,2 45564  53.0551  25.2187 0001391  91.8578 268.2570 15.06391982303259
STARLINK-1357,45565,53.0644,0.0005028,15.29385433,474.2012102333656,481.09538793012234,1 45565U 20025AL  25286.95838801  .00056312  00000+0  19466-2 0  9993,2 45565  53.0644  13.3422 0005028 255.6574 104.3867 15.29385433303427
STARLINK-1361,45567,53.0567,8.57e-05,15.06392897,546.6398234587168,547.8268319328836,1 45567U 20025AN  25286.99902675  .00000071  00000+0  23658-4 0  9991,2 45567  53.0567  25.1349 0000857  95.7479 264.3608 15.06392897303263
STARLINK-1363,45568,53.0541,0.000128,15.11644445,530.3001847203241,532.0689710442621,1 45568U 20025AP  25287.33335648  .01396905  00000+0  74449-1 0  9997,2 45568  53.0541  23.8245 0001280  86.9933 234.1324 15.11644445  5707
STARLINK-1366,45569,53.054,0.0001182,15.13645643,524.277375722665,525.9092993744607,1 45569U 20025AQ  25287.33335648  .01041514  00000+0  53083-1 0  9992,2 45569  53.0540  23.5045 0001182  94.2097 327.8869 15.13645643  5297
STARLINK-1376,45570,53.0535,0.0001601,15.06384811,546.1493546696374,548.3668661839956,1 45570U 20025AR  25287.26074846 -.00000185  00000+0  64988-5 0  9995,2 45570  53.0535  23.9628 0001601  94.9937 265.1235 15.06384811303291
STARLINK-1320,45572,53.0597,0.0008973,15.3965625,441.0007121493227,453.2493273699838,1 45572U 20025AT  25287.27387407  .00034164  00000+0  85818-3 0  9994,2 45572  53.0597 331.4526 0008973 302.5686  57.4451 15.39656250304055
STARLINK-1321,45573,53.0559,0.0001538,15.06404712,546.1319999874759,548.2622327616727,1 45573U 20025AU  25286.98151623 -.00002724  00000+0 -16399-3 0  9998,2 45573  53.0559  15.2173 0001538  88.4055 271.7110 15.06404712303093
STARLINK-1328,45576,53.0542,0.0008331,15.62057992,376.0815774771154,387.3448398948276,1 45576U 20025AX  25287.21358334  .00114312  00000+0  12689-2 0  9998,2 45576  53.0542 357.7008 0008331 327.6061  32.4440 15.62057992303670
STARLINK-1331,45578,53.0551,0.0002461,15.06411941,545.4706414613102,548.8792800083847,1 45578U 20025AZ  25287.22479166  .00003766  00000+0  27154-3 0  9992,2 45578  53.0551  14.1248 0002461  78.3922 281.7343 15.06411941303448
STARLINK-1333,45580,53.0544,0.0001103,15.06384286,546.4958482455504,548.0235907618726,1 45580U 20025BB  25287.29761781  .00003569  00000+0  25847-3 0  9997,2 45580  53.0544  23.7955 0001103  97.6423 262.4691 15.06384286303304
STARLINK-1335,45581,53.0553,0.0001187,15.06379756,546.4515573388044,548.0956498160949,1 45581U 20025BC  25287.23587452  .00000646  00000+0  62306-4 0  9998,2 45581  53.0553  14.0761 0001187  88.4401 271.6724 15.06379756303438
STARLINK-1337,45582,53.0544,0.000153,15.06435651,546.0427333007201,548.1618565249637,1 45582U 20025BD  25286.66084621  .00020772  00000+0  14079-2 0  9999,2 45582  53.0544  16.6574 0001530  71.5522 288.5633 15.06435651303341
STARLINK-1347,45586,53.0578,0.000496,15.28567246,476.69283470602113,483.49620037141995,1 45586U 20025BH  25286.61952581  .00053065  00000+0  18825-2 0  9991,2 45586  53.0578   5.3060 0004960 262.8113  97.2322 15.28567246303494
STARLINK-1360,45588,53.0468,0.0006092,15.71330418,350.9918355642376,359.1956038731432,1 45588U 20025BK  25287.30193170  .00098698  00000+0  75625-3 0  9994,2 45588  53.0468 286.1702 0006092  55.4186 304.7405 15.71330418304676
STARLINK-1364,45589,53.0563,0.000143,15.06336998,546.4143042673877,548.3950091812112,1 45589U 20025BL  25287.26168016 -.00020127  00000+0 -13384-2 0  9998,2 45589  53.0563  13.9633 0001430  85.6632 274.4520 15.06336998303435
STARLINK-1365,45590,53.0527,0.000137,15.06413477,546.2214860885779,548.1190202759499,1 45590U 20025BM  25286.61384334  .00006059  00000+0  42516-3 0  9997,2 45590  53.0527  46.8644 0001370  85.4226 274.6919 15.06413477302930
STARLINK-1443,45660,53.0539,8.9e-05,15.06412175,546.5578908674397,547.7905962687946,1 45660U 20035D   25286.93083648  .00006740  00000+0  47080-3 0  9993,2 45660  53.0539   5.4475 0000890 100.4427 259.6662 15.06412175296610
STARLINK-1446,45663,53.0283,0.0001875,15.3145342,470.19083372195837,472.7594382729576,1 45663U 20035G   25287.30392441  .00041343  00000+0  13468-2 0  9992,2 45663  53.0283 329.8937 0001875 228.2992 131.7847 15.31453420297145
STARLINK-1448,45665,53.0553,0.0002033,15.06396418,545.8146106804043,548.6304618678532,1 45665U 20035J   25287.19993790  .00002295  00000+0  17293-3 0  9999,2 45665  53.0553   4.2370 0002033  90.3235 269.7987 15.06396418296643
STARLINK-1451,45668,53.0551,0.0001241,15.06403312,546.341972657563,548.0608416502191,1 45668U 20035M   25286.93824301 -.00002976  00000+0 -18099-3 0  9997,2 45668  53.0551   5.7286 0001241 100.4976 259.6153 15.06403312296613
STARLINK-1452,45669,53.0386,0.0008502,15.24518378,486.3908449442233,498.07322044741886,1 45669U 20035N   25287.32900889  .00015404  00000+0  62993-3 0  9998,2 45669  53.0386 347.2598 0008502 311.3081  48.7183 15.24518378296908
STARLINK-1453,45670,53.0539,0.0001345,15.06388441,546.3155206890497,548.1784489809697,1 45670U 20035P   25287.28008019 -.00005596  00000+0 -35717-3 0  9996,2 45670  53.0539 333.8794 0001345  83.0530 277.0612 15.06388441296976
STARLINK-1454,45671,53.0542,0.0002348,15.06400126,545.5851000157218,548.8372435171832,1 45671U 20035Q   25287.22573132  .00002851  00000+0  21023-3 0  9998,2 45671  53.0542   4.1210 0002348  87.3337 272.7920 15.06400126296641
STARLINK-1456,45673,53.0561,0.0001532,15.06401711,546.1453513789693,548.2672765703701,1 45673U 20035S   25287.24046372  .00002786  00000+0  20583-3 0  9990,2 45673  53.0561   4.0572 0001532 101.1512 258.9649 15.06401711296665
STARLINK-1457,45674,53.0553,0.0001264,15.06398709,546.3401501123108,548.0908792280197,1 45674U 20035T   25287.24782718  .00002140  00000+0  16253-3 0  9995,2 45674  53.0553   4.0227 0001264  76.9602 283.1528 15.06398709296630
STARLINK-1458,45675,53.0552,0.000121,15.06389662,546.4052715911803,548.0812136098903,1 45675U 20035U   25287.23678838 -.00000320  00000+0 -26134-5 0  9993,2 45675  53.0552   4.0704 0001210  86.7899 273.3228 15.06389662296623
STARLINK-1460,45676,53.0552,9.99e-05,15.06405293,546.5034950027712,547.8871764034438,1 45676U 20035V   25286.94190462  .00002453  00000+0  18350-3 0  9999,2 45676  53.0552   5.3942 0000999  92.0954 268.0150 15.06405293296575
STARLINK-1392,45677,53.0557,0.0001602,15.06388246,546.138135879517,548.3570290997468,1 45677U 20035W   25286.95297468 -.00002123  00000+0 -12373-3 0  9990,2 45677  53.0557   5.3452 0001602  93.6859 266.4313 15.06388246296616
STARLINK-1394,45679,53.0555,0.0001343,15.06377919,546.3491504494932,548.2093172499053,1 45679U 20035Y   25287.21560506 -.00002378  00000+0 -14087-3 0  9994,2 45679  53.0555 354.1655 0001343 108.3194 251.7941 15.06377919296792
STARLINK-1402,45685,53.0552,0.0002179,15.10470512,533.2577287270778,536.2703710046098,1 45685U 20035AE  25287.33335648  .00045218  00000+0  27166-2 0  9990,2 45685  53.0552 348.0262 0002179  66.8955  62.9131 15.10470512  5703
STARLINK-1404,45686,53.0552,0.0001442,15.06379814,546.2747816284245,548.2720699952297,1 45686U 20035AF  25287.17504125 -.00002345  00000+0 -13869-3 0  9993,2 45686  53.0552 354.3522 0001442  84.7357 275.3797 15.06379814296797
STARLINK-1413,45689,53.0552,0.0001896,15.06396773,545.9084002843729,548.5344962079471,1 45689U 20035AJ  25287.32617128  .00002415  00000+0  18102-3 0  9992,2 45689  53.0552 353.6669 0001896  90.9059 269.2148 15.06396773296723
STARLINK-1417,45693,53.0555,0.0001607,15.06410857,546.0653848308457,548.2911811628001,1 45693U 20035AN  25286.92438392  .00002386  00000+0  17896-3 0  9992,2 45693  53.0555 355.4772 0001607  82.7910 277.3262 15.06410857296740
STARLINK-1420,45695,53.0549,0.0001387,15.06385393,546.2957745968324,548.2168787056453,1 45695U 20035AQ  25287.32338290 -.00000429  00000+0 -99017-5 0  9990,2 45695  53.0549 333.6744 0001387  86.9137 273.2011 15.06385393297096
STARLINK-1422,45696,53.0553,0.0001513,15.06402047,546.1574798976062,548.2530884727994,1 45696U 20035AR  25287.20084793  .00004796  00000+0  34062-3 0  9990,2 45696  53.0553 354.2355 0001513  87.6434 272.4728 15.06402047296785
STARLINK-1351,45697,53.055,0.000141,15.06388443,546.2704995642225,548.2234578462167,1 45697U 20035AS  25287.30958143 -.00002942  00000+0 -17872-3 0  9994,2 45697  53.0550 333.7467 0001410  91.3628 268.7523 15.06388443297091
STARLINK-1398,45699,53.0509,0.000145,15.46421697,426.2171231648035,428.1906720251063,1 45699U 20035AU  25287.28506523  .00104342  00000+0  20552-2 0  9997,2 45699  53.0509 298.6899 0001450 320.7708  39.3193 15.46421697297589
STARLINK-1400,45700,53.0551,0.0001603,15.06388258,546.1374065682057,548.3576848535595,1 45700U 20035AV  25287.28378214 -.00001218  00000+0 -62884-4 0  9990,2 45700  53.0551 333.8614 0001603 106.0529 254.0637 15.06388258297087
STARLINK-1403,45701,53.0568,0.0001816,15.06383481,546.004534264448,548.5198392490774,1 45701U 20035AW  25287.31327635  .00000413  00000+0  46617-4 0  9996,2 45701  53.0568 333.7315 0001816  89.7987 270.3211 15.06383481297086
STARLINK-1407,45703,53.0418,0.0010757,15.37628997,445.77439349940596,460.4711657893322,1 45703U 20035AY  25287.28454678  .00093846  00000+0  24791-2 0  9991,2 45703  53.0418 296.5153 0010757 340.0232  20.0348 15.37628997297616
